ATLAS CENTAUR 2         
1 00694U 63047A   26193.44122005  .00000701  00000+0  74495-4 0  9998
2 00694  30.3509 218.1601 0545707 100.2353 266.0216 14.12562022149273
THOR AGENA D R/B        
1 00733U 64002A   26193.55351273  .00000077  00000+0  44978-4 0  9996
2 00733  99.1156 213.6536 0031770 254.5111 105.2563 14.34075366256193
SL-3 R/B                
1 00877U 64053B   26193.58099869  .00000028  00000+0  29771-4 0  9994
2 00877  65.0780 325.0539 0080337 253.1382 106.0896 14.61438677285048
SL-8 R/B                
1 02802U 67045B   26193.20524466  .00000128  00000+0  43033-4 0  9991
2 02802  74.0112 115.5335 0063003  93.0203 267.8167 14.45694503107018
SL-8 R/B                
1 03230U 68040B   26193.59486745  .00001250  00000+0  93232-4 0  9995
2 03230  74.0292  58.3239 0025202 206.9309 153.0574 15.03932729108784
OAO 2                   
1 03597U 68110A   26193.23416046  .00000100  00000+0  32093-4 0  9998
2 03597  34.9937 289.8279 0004897 118.6147 241.5037 14.47361181 37156
ISIS 1                  
1 03669U 69009A   26193.24150902  .00000027  00000+0  12940-4 0  9990
2 03669  88.4451 141.6483 1707096 197.6187 155.7823 11.30436309362600
SERT 2                  
1 04327U 70009A   26193.44894565 -.00000028  00000+0  18002-4 0  9993
2 04327  99.2840 129.8065 0004428 196.4170 276.6456 13.58740831796836
SL-3 R/B                
1 05118U 71028B   26193.59724016  .00040082  00000+0  30096-3 0  9992
2 05118  81.2316 256.4857 0014558 191.0336 169.0606 15.72256160  8237
ASTEX 1                 
1 05560U 71089A   26193.52192654  .00000197  00000+0  50002-4 0  9993
2 05560  92.7004 192.0150 0016666  30.9134 329.3049 14.50870265880401
SL-8 R/B                
1 05730U 71119B   26193.59039335  .00004034  00000+0  20767-3 0  9997
2 05730  73.8885 301.8366 0542862 242.6933 111.7967 14.39713077673458
OAO 3 (COPERNICUS)      
1 06153U 72065A   26193.39909904  .00000143  00000+0  33631-4 0  9996
2 06153  35.0064 306.7496 0005924 101.2559 306.8044 14.60073955864433
ATLAS CENTAUR R/B       
1 06155U 72065B   26193.40809350  .00000400  00000+0  57445-4 0  9999
2 06155  35.0019 294.6812 0033823 339.3788  20.5547 14.77963515859721
SL-8 R/B                
1 08459U 75112B   26193.28993778  .00000123  00000+0  49040-4 0  9992
2 08459  74.0604 149.6928 0016303 213.1165 146.8970 14.38257207649788
SL-3 R/B                
1 10114U 77057B   26193.55438635  .00006969  00000+0  13341-3 0  9997
2 10114  97.5845  11.3344 0006934 179.4824 180.6434 15.48376767687630
SEASAT 1                
1 10967U 78064A   26193.48583178  .00000035  00000+0  48116-4 0  9994
2 10967 108.0182  27.3972 0001144 251.9444 108.1577 14.46259176524559
SL-14 R/B               
1 11267U 79011B   26193.45891088  .00000297  00000+0  26734-4 0  9992
2 11267  82.5252 338.1695 0016030   6.2950 353.8468 14.92036678547380
SL-8 R/B                
1 11574U 79089B   26193.52008562  .00000095  00000+0  36719-4 0  9993
2 11574  74.0670 219.9615 0015888 355.3736   4.7270 14.42414182454104
SL-14 R/B               
1 11672U 80005B   26193.48712455  .00000296  00000+0  27214-4 0  9993
2 11672  82.5135 188.8403 0017279 105.7738 254.5388 14.91048615495082
SL-8 R/B                
1 12139U 81003B   26193.39003588  .00011113  00000+0  26383-3 0  9996
2 12139  82.9358 174.3435 0250149 103.3487 259.5767 15.14997529333537
SL-3 R/B                
1 12465U 81046B   26193.58620379  .00007952  00000+0  16873-3 0  9998
2 12465  81.2308 139.4607 0015911 307.1899  52.7892 15.44740967457697
SL-3 R/B                
1 12904U 81103B   26193.62174759  .00002072  00000+0  88261-4 0  9990
2 12904  81.1576  66.7473 0011881 221.0624 138.9715 15.22477137992233
SL-3 R/B                
1 13068U 82013B   26193.58532362  .00002540  00000+0  10633-3 0  9993
2 13068  81.1731  14.2396 0022847 116.8692 243.4879 15.22950035423358
SL-3 R/B                
1 13154U 82039B   26193.60285499  .00001845  00000+0  10908-3 0  9998
2 13154  81.1506  71.7255 0028037 267.3819  92.4197 15.10688927400496
SL-3 R/B                
1 13403U 82079B   26193.55975346  .00002937  00000+0  11221-3 0  9992
2 13403  81.1448  45.4696 0024965 102.1241 258.2792 15.25998144396731
SL-14 R/B               
1 13553U 82092B   26193.55844721  .00000234  00000+0  23452-4 0  9993
2 13553  82.5667  24.5585 0018869 245.1209 169.1393 14.86763759347481
SL-3 R/B                
1 13819U 83010B   26193.56628393  .00008955  00000+0  15944-3 0  9999
2 13819  81.0996 208.6914 0013473 333.5985  26.4573 15.49864881377267
SL-3 R/B                
1 14208U 83075B   26193.59315406  .00006414  00000+0  15675-3 0  9993
2 14208  97.6103 203.1434 0021979 138.4087 221.8836 15.40947394349371
COSMOS 1536             
1 14699U 84013A   26193.42139872  .00004051  00000+0  15911-3 0  9991
2 14699  82.5452 343.7050 0013673 198.1111 161.9642 15.25323623291622
SL-14 R/B               
1 14820U 84027B   26193.26290346  .00000212  00000+0  21450-4 0  9999
2 14820  82.5431 128.2033 0016364 282.2297  77.7086 14.86077954266135
