OBJECT_NAME,OBJECT_ID,EPOCH,MEAN_MOTION,ECCENTRICITY,INCLINATION,RA_OF_ASC_NODE,ARG_OF_PERICENTER,MEAN_ANOMALY,EPHEMERIS_TYPE,CLASSIFICATION_TYPE,NORAD_CAT_ID,ELEMENT_SET_NO,REV_AT_EPOCH,BSTAR,MEAN_MOTION_DOT,MEAN_MOTION_DDOT
ATLAS CENTAUR 2,1963-047A,2026-07-12T10:35:21.412320,14.12562022,.05457075,30.3509,218.1601,100.2353,266.0216,0,U,694,999,14927,.74495449E-4,.701E-5,0
THOR AGENA D R/B,1964-002A,2026-07-12T13:17:03.499872,14.34075366,.003177,99.1156,213.6536,254.5111,105.2563,0,U,733,999,25619,.44977501E-4,.77E-6,0
SL-3 R/B,1964-053B,2026-07-12T13:56:38.286816,14.61438677,.00803378,65.0780,325.0539,253.1382,106.0896,0,U,877,999,28504,.29770738E-4,.28E-6,0
SL-8 R/B,1967-045B,2026-07-12T04:55:33.138624,14.45694503,.00630032,74.0112,115.5335,93.0203,267.8167,0,U,2802,999,10701,.43033439E-4,.128E-5,0
SL-8 R/B,1968-040B,2026-07-12T14:16:36.547680,15.03932729,.00252027,74.0292,58.3239,206.9309,153.0574,0,U,3230,999,10878,.93232186E-4,.125E-4,0
OAO 2,1968-110A,2026-07-12T05:37:11.463744,14.47361181,.0004897,34.9937,289.8279,118.6147,241.5037,0,U,3597,999,3715,.32093E-4,.1E-5,0
ISIS 1,1969-009A,2026-07-12T05:47:46.379328,11.30436309,.1707096,88.4451,141.6483,197.6187,155.7823,0,U,3669,999,36260,.1294E-4,.27E-6,0
SERT 2,1970-009A,2026-07-12T10:46:28.904160,13.58740831,.00044283,99.2840,129.8065,196.4170,276.6456,0,U,4327,999,79683,.18002084E-4,-.28E-6,0
SL-3 R/B,1971-028B,2026-07-12T14:20:01.549824,15.72256160,.00145589,81.2316,256.4857,191.0336,169.0606,0,U,5118,999,823,.30096336E-3,.40082E-3,0
ASTEX 1,1971-089A,2026-07-12T12:31:34.453056,14.50870265,.00166668,92.7004,192.0150,30.9134,329.3049,0,U,5560,999,88040,.50002354E-4,.197E-5,0
SL-8 R/B,1971-119B,2026-07-12T14:10:09.985440,14.39713077,.05428626,73.8885,301.8366,242.6933,111.7967,0,U,5730,999,67345,.20767481E-3,.4034E-4,0
OAO 3 (COPERNICUS),1972-065A,2026-07-12T09:34:42.157056,14.60073955,.00059241,35.0064,306.7496,101.2559,306.8044,0,U,6153,999,86443,.3363144E-4,.143E-5,0
ATLAS CENTAUR R/B,1972-065B,2026-07-12T09:47:39.278400,14.77963515,.00338234,35.0019,294.6812,339.3788,20.5547,0,U,6155,999,85972,.57444869E-4,.4E-5,0
SL-8 R/B,1975-112B,2026-07-12T06:57:30.624192,14.38257207,.00163039,74.0604,149.6928,213.1165,146.8970,0,U,8459,999,64978,.49039645E-4,.123E-5,0
SL-3 R/B,1977-057B,2026-07-12T13:18:18.980640,15.48376767,.00069347,97.5845,11.3344,179.4824,180.6434,0,U,10114,999,68763,.13341364E-3,.6969E-4,0
SEASAT 1,1978-064A,2026-07-12T11:39:35.865792,14.46259176,.00011449,108.0182,27.3972,251.9444,108.1577,0,U,10967,999,52455,.48116141E-4,.35E-6,0
SL-14 R/B,1979-011B,2026-07-12T11:00:49.900032,14.92036678,.00160306,82.5252,338.1695,6.2950,353.8468,0,U,11267,999,54738,.26734134E-4,.297E-5,0
SL-8 R/B,1979-089B,2026-07-12T12:28:55.397568,14.42414182,.00158883,74.0670,219.9615,355.3736,4.7270,0,U,11574,999,45410,.36719187E-4,.95E-6,0
SL-14 R/B,1980-005B,2026-07-12T11:41:27.561120,14.91048615,.00172791,82.5135,188.8403,105.7738,254.5388,0,U,11672,999,49508,.27214087E-4,.296E-5,0
SL-8 R/B,1981-003B,2026-07-12T09:21:39.100032,15.14997529,.02501496,82.9358,174.3435,103.3487,259.5767,0,U,12139,999,33353,.26382594E-3,.11113E-3,0
SL-3 R/B,1981-046B,2026-07-12T14:04:08.007456,15.44740967,.00159114,81.2308,139.4607,307.1899,52.7892,0,U,12465,999,45769,.16873312E-3,.7952E-4,0
SL-3 R/B,1981-103B,2026-07-12T14:55:18.991776,15.22477137,.0011881,81.1576,66.7473,221.0624,138.9715,0,U,12904,999,99223,.88261464E-4,.2072E-4,0
SL-3 R/B,1982-013B,2026-07-12T14:02:51.960768,15.22950035,.00228477,81.1731,14.2396,116.8692,243.4879,0,U,13068,999,42335,.10632699E-3,.254E-4,0
SL-3 R/B,1982-039B,2026-07-12T14:28:06.671136,15.10688927,.00280372,81.1506,71.7255,267.3819,92.4197,0,U,13154,999,40049,.10908149E-3,.1845E-4,0
SL-3 R/B,1982-079B,2026-07-12T13:26:02.698944,15.25998144,.00249651,81.1448,45.4696,102.1241,258.2792,0,U,13403,999,39673,.11221347E-3,.2937E-4,0
SL-14 R/B,1982-092B,2026-07-12T13:24:09.838944,14.86763759,.00188696,82.5667,24.5585,245.1209,169.1393,0,U,13553,999,34748,.23451983E-4,.234E-5,0
SL-3 R/B,1983-010B,2026-07-12T13:35:26.931552,15.49864881,.00134731,81.0996,208.6914,333.5985,26.4573,0,U,13819,999,37726,.15944157E-3,.8955E-4,0
SL-3 R/B,1983-075B,2026-07-12T14:14:08.510784,15.40947394,.00219795,97.6103,203.1434,138.4087,221.8836,0,U,14208,999,34937,.15675174E-3,.6414E-4,0
COSMOS 1536,1984-013A,2026-07-12T10:06:48.849408,15.25323623,.00136738,82.5452,343.7050,198.1111,161.9642,0,U,14699,999,29162,.15911213E-3,.4051E-4,0
SL-14 R/B,1984-027B,2026-07-12T06:18:34.858944,14.86077954,.0016364,82.5431,128.2033,282.2297,77.7086,0,U,14820,999,26613,.2145E-4,.212E-5,0
